start=new Date('2022-11-03T00:00:00.000Z').valueOf();
sats=[{"FILE":"3643025","ELEMENT_SET_NO":"999","REV_AT_EPOCH":"12061","RA_OF_ASC_NODE":"61.5124","MEAN_MOTION_DOT":"-0.00000824","PERIOD":"95.593","MEAN_MOTION":"15.06384266","DECAY_DATE":null,"BSTAR":"-0.00003644300000","ECCENTRICITY":"0.00013180","TLE_LINE1":"1 46376U 20062BD  22306.77249394 -.00000824  00000-0 -36443-4 0  9994","SITE":"AFETR","GP_ID":"216786326","APOAPSIS":"548.175","COUNTRY_CODE":"US","LAUNCH_DATE":"2020-09-03","TIME_SYSTEM":"UTC","TLE_LINE2":"2 46376  53.0557  61.5124 0001318  99.2119 260.9019 15.06384266120614","ARG_OF_PERICENTER":"99.2119","EPOCH":"2022-11-02T18:32:23.476416","MEAN_ANOMALY":"260.9019","OBJECT_ID":"2020-062BD","OBJECT_TYPE":"PAYLOAD","SEMIMAJOR_AXIS":"6925.397","EPHEMERIS_TYPE":"0","MEAN_ELEMENT_THEORY":"SGP4","PERIAPSIS":"546.349","RCS_SIZE":"LARGE","OBJECT_NAME":"STARLINK-1742","NORAD_CAT_ID":"46376","CLASSIFICATION_TYPE":"U","INCLINATION":"53.0557","MEAN_MOTION_DDOT":"0.0000000000000","REF_FRAME":"TEME","CENTER_NAME":"EARTH"},{"ELEMENT_SET_NO":"999","REV_AT_EPOCH":"12022","RA_OF_ASC_NODE":"87.8597","MEAN_MOTION_DOT":"0.00002540","FILE":"3642416","BSTAR":"0.00018931000000","ECCENTRICITY":"0.00013400","TLE_LINE1":"1 46380U 20062BH  22306.47346881  .00002540  00000-0  18931-3 0  9991","SITE":"AFETR","GP_ID":"216749713","PERIOD":"95.592","MEAN_MOTION":"15.06405109","DECAY_DATE":null,"EPOCH":"2022-11-02T11:21:47.705184","MEAN_ANOMALY":"262.7254","OBJECT_ID":"2020-062BH","OBJECT_TYPE":"PAYLOAD","SEMIMAJOR_AXIS":"6925.333","APOAPSIS":"548.126","COUNTRY_CODE":"US","TIME_SYSTEM":"UTC","LAUNCH_DATE":"2020-09-03","TLE_LINE2":"2 46380  53.0533  87.8597 0001340  97.3888 262.7254 15.06405109120223","ARG_OF_PERICENTER":"97.3888","CLASSIFICATION_TYPE":"U","MEAN_MOTION_DDOT":"0.0000000000000","INCLINATION":"53.0533","REF_FRAME":"TEME","CENTER_NAME":"EARTH","EPHEMERIS_TYPE":"0","MEAN_ELEMENT_THEORY":"SGP4","RCS_SIZE":"LARGE","PERIAPSIS":"546.270","OBJECT_NAME":"STARLINK-1758","NORAD_CAT_ID":"46380"},{"PERIAPSIS":"546.303","RCS_SIZE":"LARGE","MEAN_ELEMENT_THEORY":"SGP4","EPHEMERIS_TYPE":"0","NORAD_CAT_ID":"46382","OBJECT_NAME":"STARLINK-1769","MEAN_MOTION_DDOT":"0.0000000000000","INCLINATION":"53.0569","CLASSIFICATION_TYPE":"U","CENTER_NAME":"EARTH","REF_FRAME":"TEME","COUNTRY_CODE":"US","APOAPSIS":"548.173","TLE_LINE2":"2 46382  53.0569  62.3488 0001350  76.1280 283.9859 15.06392007120591","ARG_OF_PERICENTER":"76.1280","LAUNCH_DATE":"2020-09-03","TIME_SYSTEM":"UTC","OBJECT_ID":"2020-062BK","MEAN_ANOMALY":"283.9859","EPOCH":"2022-11-02T14:06:59.825952","SEMIMAJOR_AXIS":"6925.373","OBJECT_TYPE":"PAYLOAD","MEAN_MOTION":"15.06392007","PERIOD":"95.593","DECAY_DATE":null,"SITE":"AFETR","TLE_LINE1":"1 46382U 20062BK  22306.58819243  .00002813  00000-0  20772-3 0  9991","BSTAR":"0.00020772000000","ECCENTRICITY":"0.00013500","GP_ID":"216787824","FILE":"3643025","REV_AT_EPOCH":"12059","ELEMENT_SET_NO":"999","RA_OF_ASC_NODE":"62.3488","MEAN_MOTION_DOT":"0.00002813"},{"EPHEMERIS_TYPE":"0","MEAN_ELEMENT_THEORY":"SGP4","RCS_SIZE":"LARGE","PERIAPSIS":"546.138","OBJECT_NAME":"STARLINK-1770","NORAD_CAT_ID":"46383","CLASSIFICATION_TYPE":"U","INCLINATION":"53.0548","MEAN_MOTION_DDOT":"0.0000000000000","REF_FRAME":"TEME","CENTER_NAME":"EARTH","APOAPSIS":"548.324","COUNTRY_CODE":"US","LAUNCH_DATE":"2020-09-03","TIME_SYSTEM":"UTC","TLE_LINE2":"2 46383  53.0548 107.1099 0001578  94.9111 265.2058 15.06394289120147","ARG_OF_PERICENTER":"94.9111","EPOCH":"2022-11-02T15:23:17.843136","MEAN_ANOMALY":"265.2058","OBJECT_ID":"2020-062BL","OBJECT_TYPE":"PAYLOAD","SEMIMAJOR_AXIS":"6925.366","PERIOD":"95.593","MEAN_MOTION":"15.06394289","DECAY_DATE":null,"BSTAR":"0.00013400000000","ECCENTRICITY":"0.00015780","TLE_LINE1":"1 46383U 20062BL  22306.64117874  .00001715  00000-0  13400-3 0  9990","SITE":"AFETR","GP_ID":"216759634","FILE":"3642676","ELEMENT_SET_NO":"999","REV_AT_EPOCH":"12014","RA_OF_ASC_NODE":"107.1099","MEAN_MOTION_DOT":"0.00001715"},{"REF_FRAME":"TEME","CENTER_NAME":"EARTH","CLASSIFICATION_TYPE":"U","INCLINATION":"53.0535","MEAN_MOTION_DDOT":"0.0000000000000","OBJECT_NAME":"STARLINK-1771","NORAD_CAT_ID":"46384","EPHEMERIS_TYPE":"0","MEAN_ELEMENT_THEORY":"SGP4","PERIAPSIS":"546.304","RCS_SIZE":"LARGE","OBJECT_TYPE":"PAYLOAD","SEMIMAJOR_AXIS":"6925.337","EPOCH":"2022-11-02T17:04:07.971168","MEAN_ANOMALY":"249.2917","OBJECT_ID":"2020-062BM","TIME_SYSTEM":"UTC","LAUNCH_DATE":"2020-09-03","TLE_LINE2":"2 46384  53.0535 106.7771 0001297 110.8211 249.2917 15.06403760120155","ARG_OF_PERICENTER":"110.8211","APOAPSIS":"548.100","COUNTRY_CODE":"US","GP_ID":"216759349","BSTAR":"0.00012976000000","ECCENTRICITY":"0.00012970","TLE_LINE1":"1 46384U 20062BM  22306.71120337  .00001652  00000-0  12976-3 0  9994","SITE":"AFETR","DECAY_DATE":null,"PERIOD":"95.592","MEAN_MOTION":"15.06403760","RA_OF_ASC_NODE":"106.7771","MEAN_MOTION_DOT":"0.00001652","ELEMENT_SET_NO":"999","REV_AT_EPOCH":"12015","FILE":"3642676"},{"ELEMENT_SET_NO":"999","REV_AT_EPOCH":"11509","RA_OF_ASC_NODE":"269.1703","MEAN_MOTION_DOT":"0.00001526","FILE":"3642416","ECCENTRICITY":"0.00020170","BSTAR":"0.00012139000000","TLE_LINE1":"1 46532U 20070A   22306.18043268  .00001526  00000-0  12139-3 0  9997","SITE":"AFETR","GP_ID":"216749727","PERIOD":"95.593","MEAN_MOTION":"15.06390233","DECAY_DATE":null,"EPOCH":"2022-11-02T04:19:49.383552","MEAN_ANOMALY":"324.8708","OBJECT_ID":"2020-070A","OBJECT_TYPE":"PAYLOAD","SEMIMAJOR_AXIS":"6925.378","APOAPSIS":"548.640","COUNTRY_CODE":"US","TIME_SYSTEM":"UTC","LAUNCH_DATE":"2020-10-06","TLE_LINE2":"2 46532  53.0560 269.1703 0002017  35.2414 324.8708 15.06390233115098","ARG_OF_PERICENTER":"35.2414","CLASSIFICATION_TYPE":"U","MEAN_MOTION_DDOT":"0.0000000000000","INCLINATION":"53.0560","REF_FRAME":"TEME","CENTER_NAME":"EARTH","EPHEMERIS_TYPE":"0","MEAN_ELEMENT_THEORY":"SGP4","RCS_SIZE":"LARGE","PERIAPSIS":"545.847","OBJECT_NAME":"STARLINK-1644","NORAD_CAT_ID":"46532"},{"MEAN_MOTION_DOT":"-0.00000144","RA_OF_ASC_NODE":"267.3193","ELEMENT_SET_NO":"999","REV_AT_EPOCH":"11515","FILE":"3643025","GP_ID":"216787838","ECCENTRICITY":"0.00026370","BSTAR":"0.00000926650000","TLE_LINE1":"1 46533U 20070B   22306.58957639 -.00000144  00000-0  92665-5 0  9998","SITE":"AFETR","DECAY_DATE":null,"PERIOD":"95.593","MEAN_MOTION":"15.06380764","OBJECT_TYPE":"PAYLOAD","SEMIMAJOR_AXIS":"6925.408","EPOCH":"2022-11-02T14:08:59.400096","MEAN_ANOMALY":"322.9998","OBJECT_ID":"2020-070B","TIME_SYSTEM":"UTC","LAUNCH_DATE":"2020-10-06","TLE_LINE2":"2 46533  53.0556 267.3193 0002637  37.1173 322.9998 15.06380764115153","ARG_OF_PERICENTER":"37.1173","APOAPSIS":"549.099","COUNTRY_CODE":"US","REF_FRAME":"TEME","CENTER_NAME":"EARTH","CLASSIFICATION_TYPE":"U","MEAN_MOTION_DDOT":"0.0000000000000","INCLINATION":"53.0556","OBJECT_NAME":"STARLINK-1648","NORAD_CAT_ID":"46533","EPHEMERIS_TYPE":"0","MEAN_ELEMENT_THEORY":"SGP4","PERIAPSIS":"545.446","RCS_SIZE":"LARGE"},{"TLE_LINE2":"2 46534  53.0545 269.2030 0002537  35.0008 325.1147 15.06401516115099","ARG_OF_PERICENTER":"35.0008","TIME_SYSTEM":"UTC","LAUNCH_DATE":"2020-10-06","COUNTRY_CODE":"US","APOAPSIS":"548.966","SEMIMAJOR_AXIS":"6925.344","OBJECT_TYPE":"PAYLOAD","OBJECT_ID":"2020-070C","MEAN_ANOMALY":"325.1147","EPOCH":"2022-11-02T04:09:12.412512","NORAD_CAT_ID":"46534","OBJECT_NAME":"STARLINK-1659","RCS_SIZE":"LARGE","PERIAPSIS":"545.452","MEAN_ELEMENT_THEORY":"SGP4","EPHEMERIS_TYPE":"0","CENTER_NAME":"EARTH","REF_FRAME":"TEME","MEAN_MOTION_DDOT":"0.0000000000000","INCLINATION":"53.0545","CLASSIFICATION_TYPE":"U","FILE":"3642416","RA_OF_ASC_NODE":"269.2030","MEAN_MOTION_DOT":"0.00001989","REV_AT_EPOCH":"11509","ELEMENT_SET_NO":"999","DECAY_DATE":null,"MEAN_MOTION":"15.06401516","PERIOD":"95.592","GP_ID":"216750729","SITE":"AFETR","TLE_LINE1":"1 46534U 20070C   22306.17306033  .00001989  00000-0  15239-3 0  9997","ECCENTRICITY":"0.00025370","BSTAR":"0.00015239000000"},{"INCLINATION":"53.0540","MEAN_MOTION_DDOT":"0.0000000000000","CLASSIFICATION_TYPE":"U","CENTER_NAME":"EARTH","REF_FRAME":"TEME","MEAN_ELEMENT_THEORY":"SGP4","EPHEMERIS_TYPE":"0","PERIAPSIS":"545.799","RCS_SIZE":"LARGE","OBJECT_NAME":"STARLINK-1663","NORAD_CAT_ID":"46535","EPOCH":"2022-11-02T21:24:13.915872","OBJECT_ID":"2020-070D","MEAN_ANOMALY":"317.0615","OBJECT_TYPE":"PAYLOAD","SEMIMAJOR_AXIS":"6925.394","COUNTRY_CODE":"US","APOAPSIS":"548.719","TIME_SYSTEM":"UTC","LAUNCH_DATE":"2020-10-06","TLE_LINE2":"2 46535  53.0540 265.9829 0002108  43.0539 317.0615 15.06385103115190","ARG_OF_PERICENTER":"43.0539","TLE_LINE1":"1 46535U 20070D   22306.89182773 -.00001293  00000-0 -67950-4 0  9998","ECCENTRICITY":"0.00021080","BSTAR":"-0.00006795000000","SITE":"AFETR","GP_ID":"216786839","MEAN_MOTION":"15.06385103","PERIOD":"95.593","DECAY_DATE":null,"ELEMENT_SET_NO":"999","REV_AT_EPOCH":"11519","RA_OF_ASC_NODE":"265.9829","MEAN_MOTION_DOT":"-0.00001293","FILE":"3643025"},{"MEAN_MOTION":"15.06387618","PERIOD":"95.593","DECAY_DATE":null,"TLE_LINE1":"1 46537U 20070F   22306.58589546  .00000555  00000-0  56207-4 0  9996","BSTAR":"0.00005620700000","ECCENTRICITY":"0.00022990","SITE":"AFETR","GP_ID":"216787086","FILE":"3643025","ELEMENT_SET_NO":"999","REV_AT_EPOCH":"11515","RA_OF_ASC_NODE":"267.3503","MEAN_MOTION_DOT":"0.00000555","MEAN_ELEMENT_THEORY":"SGP4","EPHEMERIS_TYPE":"0","RCS_SIZE":"LARGE","PERIAPSIS":"545.659","OBJECT_NAME":"STARLINK-1672","NORAD_CAT_ID":"46537","INCLINATION":"53.0559","MEAN_MOTION_DDOT":"0.0000000000000","CLASSIFICATION_TYPE":"U","CENTER_NAME":"EARTH","REF_FRAME":"TEME","COUNTRY_CODE":"US","APOAPSIS":"548.844","LAUNCH_DATE":"2020-10-06","TIME_SYSTEM":"UTC","TLE_LINE2":"2 46537  53.0559 267.3503 0002299  34.4757 325.6381 15.06387618115158","ARG_OF_PERICENTER":"34.4757","EPOCH":"2022-11-02T14:03:41.367744","OBJECT_ID":"2020-070F","MEAN_ANOMALY":"325.6381","OBJECT_TYPE":"PAYLOAD","SEMIMAJOR_AXIS":"6925.387"}];
